{
  "type": "FeatureCollection",
  "features": [
    {
      "type": "Feature",
      "properties": {
        "norad_id": 29770,
        "name": "FENGYUN 1C DEB",
        "group": "fengyun-1c-debris",
        "lat": -36.74825720514969,
        "lon": -112.94509740417426,
        "alt_km": 788.1853765838669,
        "timestamp": "2025-12-24T03:53:29.918179+00:00",
        "meta_object_name": "FENGYUN 1C DEB",
        "meta_object_id": "1999-025BL",
        "meta_epoch": "2025-12-23T17:26:25.284192",
        "meta_mean_motion": 14.20178405,
        "meta_eccentricity": 0.0063814,
        "meta_inclination": 98.8453,
        "meta_ra_of_asc_node": 73.2966,
        "meta_arg_of_pericenter": 239.7841,
        "meta_mean_anomaly": 272.4909,
        "meta_ephemeris_type": 0,
        "meta_classification_type": "U",
        "meta_norad_cat_id": 29770,
        "meta_element_set_no": 999,
        "meta_rev_at_epoch": 97242,
        "meta_bstar": 0.0013939,
        "meta_mean_motion_dot": 2.992e-05,
        "meta_mean_motion_ddot": 0,
        "tle_line1": "1 29770U 99025BL  25357.72668153  .00002992  00000+0  13939-2 0  9998",
        "tle_line2": "2 29770  98.8453  73.2966 0063814 239.7841 272.4909 14.20178405972422"
      },
      "geometry": {
        "type": "Point",
        "coordinates": [
          -112.94509740417426,
          -36.74825720514969
        ]
      }
    },
    {
      "type": "Feature",
      "properties": {
        "norad_id": 29772,
        "name": "FENGYUN 1C DEB",
        "group": "fengyun-1c-debris",
        "lat": 19.480522236542274,
        "lon": 29.46618771761955,
        "alt_km": 895.2087639074334,
        "timestamp": "2025-12-24T03:53:29.918189+00:00",
        "meta_object_name": "FENGYUN 1C DEB",
        "meta_object_id": "1999-025BN",
        "meta_epoch": "2025-12-17T20:35:52.099296",
        "meta_mean_motion": 14.03229234,
        "meta_eccentricity": 0.01377936,
        "meta_inclination": 98.3866,
        "meta_ra_of_asc_node": 200.6611,
        "meta_arg_of_pericenter": 276.0163,
        "meta_mean_anomaly": 98.373,
        "meta_ephemeris_type": 0,
        "meta_classification_type": "U",
        "meta_norad_cat_id": 29772,
        "meta_element_set_no": 999,
        "meta_rev_at_epoch": 96327,
        "meta_bstar": 0.00087765197,
        "meta_mean_motion_dot": 1.448e-05,
        "meta_mean_motion_ddot": 0,
        "tle_line1": "1 29772U 99025BN  25351.85824189  .00001448  00000+0  87765-3 0  9995",
        "tle_line2": "2 29772  98.3866 200.6611 0137793 276.0163  98.3730 14.03229234963277"
      },
      "geometry": {
        "type": "Point",
        "coordinates": [
          29.46618771761955,
          19.480522236542274
        ]
      }
    },
    {
      "type": "Feature",
      "properties": {
        "norad_id": 29773,
        "name": "FENGYUN 1C DEB",
        "group": "fengyun-1c-debris",
        "lat": 49.9640255523098,
        "lon": -17.054139526293547,
        "alt_km": 815.6699725079288,
        "timestamp": "2025-12-24T03:53:29.918199+00:00",
        "meta_object_name": "FENGYUN 1C DEB",
        "meta_object_id": "1999-025BP",
        "meta_epoch": "2025-12-23T04:35:05.614944",
        "meta_mean_motion": 14.27588941,
        "meta_eccentricity": 0.00464658,
        "meta_inclination": 98.9878,
        "meta_ra_of_asc_node": 151.0896,
        "meta_arg_of_pericenter": 260.0069,
        "meta_mean_anomaly": 281.4609,
        "meta_ephemeris_type": 0,
        "meta_classification_type": "U",
        "meta_norad_cat_id": 29773,
        "meta_element_set_no": 999,
        "meta_rev_at_epoch": 98346,
        "meta_bstar": 0.00035318951,
        "meta_mean_motion_dot": 8.32e-06,
        "meta_mean_motion_ddot": 0,
        "tle_line1": "1 29773U 99025BP  25357.19103721  .00000832  00000+0  35319-3 0  9995",
        "tle_line2": "2 29773  98.9878 151.0896 0046465 260.0069 281.4609 14.27588941983466"
      },
      "geometry": {
        "type": "Point",
        "coordinates": [
          -17.054139526293547,
          49.9640255523098
        ]
      }
    },
    {
      "type": "Feature",
      "properties": {
        "norad_id": 29774,
        "name": "FENGYUN 1C DEB",
        "group": "fengyun-1c-debris",
        "lat": -74.62160558493038,
        "lon": 83.29192763908121,
        "alt_km": 859.2791798237222,
        "timestamp": "2025-12-24T03:53:29.918209+00:00",
        "meta_object_name": "FENGYUN 1C DEB",
        "meta_object_id": "1999-025BQ",
        "meta_epoch": "2025-12-23T14:00:50.851296",
        "meta_mean_motion": 14.22740808,
        "meta_eccentricity": 0.0051346,
        "meta_inclination": 99.0779,
        "meta_ra_of_asc_node": 298.2383,
        "meta_arg_of_pericenter": 92.7645,
        "meta_mean_anomaly": 84.6446,
        "meta_ephemeris_type": 0,
        "meta_classification_type": "U",
        "meta_norad_cat_id": 29774,
        "meta_element_set_no": 999,
        "meta_rev_at_epoch": 98229,
        "meta_bstar": 0.00016974,
        "meta_mean_motion_dot": 3.39e-06,
        "meta_mean_motion_ddot": 0,
        "tle_line1": "1 29774U 99025BQ  25357.58392189  .00000339  00000+0  16974-3 0  9995",
        "tle_line2": "2 29774  99.0779 298.2383 0051346  92.7645  84.6446 14.22740808982297"
      },
      "geometry": {
        "type": "Point",
        "coordinates": [
          83.29192763908121,
          -74.62160558493038
        ]
      }
    },
    {
      "type": "Feature",
      "properties": {
        "norad_id": 29776,
        "name": "FENGYUN 1C DEB",
        "group": "fengyun-1c-debris",
        "lat": -68.05278618237344,
        "lon": -177.93957433468034,
        "alt_km": 857.9238403068111,
        "timestamp": "2025-12-24T03:53:29.918220+00:00",
        "meta_object_name": "FENGYUN 1C DEB",
        "meta_object_id": "1999-025BS",
        "meta_epoch": "2025-12-23T01:23:03.234048",
        "meta_mean_motion": 14.07781136,
        "meta_eccentricity": 0.00229805,
        "meta_inclination": 98.7701,
        "meta_ra_of_asc_node": 23.5136,
        "meta_arg_of_pericenter": 240.6543,
        "meta_mean_anomaly": 174.6661,
        "meta_ephemeris_type": 0,
        "meta_classification_type": "U",
        "meta_norad_cat_id": 29776,
        "meta_element_set_no": 999,
        "meta_rev_at_epoch": 97225,
        "meta_bstar": 6.5546552e-05,
        "meta_mean_motion_dot": 6.8e-07,
        "meta_mean_motion_ddot": 0,
        "tle_line1": "1 29776U 99025BS  25357.05767632  .00000068  00000+0  65547-4 0  9998",
        "tle_line2": "2 29776  98.7701  23.5136 0022980 240.6543 174.6661 14.07781136972254"
      },
      "geometry": {
        "type": "Point",
        "coordinates": [
          -177.93957433468034,
          -68.05278618237344
        ]
      }
    },
    {
      "type": "Feature",
      "properties": {
        "norad_id": 29777,
        "name": "FENGYUN 1C DEB",
        "group": "fengyun-1c-debris",
        "lat": 11.853985608499206,
        "lon": 53.070625338919605,
        "alt_km": 988.5259904353634,
        "timestamp": "2025-12-24T03:53:29.918231+00:00",
        "meta_object_name": "FENGYUN 1C DEB",
        "meta_object_id": "1999-025BT",
        "meta_epoch": "2025-12-21T03:31:13.283328",
        "meta_mean_motion": 13.92107603,
        "meta_eccentricity": 0.00930492,
        "meta_inclination": 99.2823,
        "meta_ra_of_asc_node": 52.0193,
        "meta_arg_of_pericenter": 186.9813,
        "meta_mean_anomaly": 201.2435,
        "meta_ephemeris_type": 0,
        "meta_classification_type": "U",
        "meta_norad_cat_id": 29777,
        "meta_element_set_no": 999,
        "meta_rev_at_epoch": 96158,
        "meta_bstar": 8.1509029e-05,
        "meta_mean_motion_dot": 6.3e-07,
        "meta_mean_motion_ddot": 0,
        "tle_line1": "1 29777U 99025BT  25355.14668152  .00000063  00000+0  81509-4 0  9995",
        "tle_line2": "2 29777  99.2823  52.0193 0093049 186.9813 201.2435 13.92107603961586"
      },
      "geometry": {
        "type": "Point",
        "coordinates": [
          53.070625338919605,
          11.853985608499206
        ]
      }
    },
    {
      "type": "Feature",
      "properties": {
        "norad_id": 29779,
        "name": "FENGYUN 1C DEB",
        "group": "fengyun-1c-debris",
        "lat": 50.87487614451717,
        "lon": -160.1230798073721,
        "alt_km": 796.720740672441,
        "timestamp": "2025-12-24T03:53:29.918241+00:00",
        "meta_object_name": "FENGYUN 1C DEB",
        "meta_object_id": "1999-025BV",
        "meta_epoch": "2025-12-23T18:47:41.073792",
        "meta_mean_motion": 14.13452155,
        "meta_eccentricity": 0.006396,
        "meta_inclination": 98.6769,
        "meta_ra_of_asc_node": 8.6886,
        "meta_arg_of_pericenter": 132.9549,
        "meta_mean_anomaly": 227.7013,
        "meta_ephemeris_type": 0,
        "meta_classification_type": "U",
        "meta_norad_cat_id": 29779,
        "meta_element_set_no": 999,
        "meta_rev_at_epoch": 97568,
        "meta_bstar": 0.00020007,
        "meta_mean_motion_dot": 3.42e-06,
        "meta_mean_motion_ddot": 0,
        "tle_line1": "1 29779U 99025BV  25357.78311428  .00000342  00000+0  20007-3 0  9995",
        "tle_line2": "2 29779  98.6769   8.6886 0063960 132.9549 227.7013 14.13452155975682"
      },
      "geometry": {
        "type": "Point",
        "coordinates": [
          -160.1230798073721,
          50.87487614451717
        ]
      }
    }
  ]
}